NORAD_CAT_ID,OBJECT_NAME,OBJECT_TYPE,EPOCH,MEAN_MOTION,ECCENTRICITY,INCLINATION,RA_OF_ASC_NODE,ARG_OF_PERICENTER,MEAN_ANOMALY,BSTAR,MEAN_MOTION_DOT,MEAN_MOTION_DDOT,TLE_LINE0,TLE_LINE1,TLE_LINE2,SEMIMAJOR_AXIS,PERIOD,APOGEE,PERIGEE,DECAYED
52374.0,STARLINK-3762,PAYLOAD,2023-06-09 00:33:07,15.08823638,0.000127,53.2177,19.2412,94.3898,265.7239,0.00051687,7.944e-05,0.0,0 STARLINK-3762,1 52374U 22045AV  23160.02300049  .00007944  00000-0  51687-3 0  9998,2 52374  53.2177  19.2412 0001270  94.3898 265.7239 15.08823638 64253,6917.93,95.439,540.674,538.917,0.0
52374.0,STARLINK-3762,PAYLOAD,2023-06-09 21:13:08,15.08833929,0.0001067,53.2175,15.3762,84.8157,275.2957,6.153e-05,6.91e-06,0.0,0 STARLINK-3762,1 52374U 22045AV  23160.88412710  .00000691  00000-0  61530-4 0  9992,2 52374  53.2175  15.3762 0001067  84.8157 275.2957 15.08833929 64383,6917.899,95.438,540.502,539.026,0.0
52374.0,STARLINK-3762,PAYLOAD,2023-06-10 06:45:27,15.08837657,0.0001092,53.2174,13.592,81.9287,278.1829,5.7441e-05,6.26e-06,0.0,0 STARLINK-3762,1 52374U 22045AV  23161.28156572  .00000626  00000-0  57441-4 0  9992,2 52374  53.2174  13.5920 0001092  81.9287 278.1829 15.08837657 64447,6917.888,95.438,540.508,538.997,0.0
52374.0,STARLINK-3762,PAYLOAD,2023-06-10 14:42:22,15.088399,0.0001101,53.2171,12.1051,86.7884,273.3234,1.1028e-05,-1.12e-06,0.0,0 STARLINK-3762,1 52374U 22045AV  23161.61276615 -.00000112  00000-0  11028-4 0  9992,2 52374  53.2171  12.1051 0001101  86.7884 273.3234 15.08839900 64496,6917.881,95.438,540.507,538.984,0.0
52374.0,STARLINK-3762,PAYLOAD,2023-06-11 00:14:41,15.0884657,0.000116,53.2172,10.3208,85.5951,274.5173,6.3502e-05,7.23e-06,0.0,0 STARLINK-3762,1 52374U 22045AV  23162.01020028  .00000723  00000-0  63502-4 0  9993,2 52374  53.2172  10.3208 0001160  85.5951 274.5173 15.08846570 64551,6917.86,95.437,540.528,538.923,0.0
52374.0,STARLINK-3762,PAYLOAD,2023-06-11 14:33:10,15.0883339,0.0001255,53.2176,7.6449,87.7977,272.3159,4.0034e-05,3.49e-06,0.0,0 STARLINK-3762,1 52374U 22045AV  23162.60637031  .00000349  00000-0  40034-4 0  9995,2 52374  53.2176   7.6449 0001255  87.7977 272.3159 15.08833390 64644,6917.901,95.438,540.634,538.897,0.0
52374.0,STARLINK-3762,PAYLOAD,2023-06-12 06:27:01,15.08839273,0.0001243,53.218,4.6711,84.603,275.5104,4.4912e-05,4.27e-06,0.0,0 STARLINK-3762,1 52374U 22045AV  23163.26876741  .00000427  00000-0  44912-4 0  9997,2 52374  53.2180   4.6711 0001243  84.6030 275.5104 15.08839273 64743,6917.883,95.438,540.608,538.888,0.0
52374.0,STARLINK-3762,PAYLOAD,2023-06-12 22:20:52,15.08841709,0.0001177,53.2178,1.6992,94.1721,265.9405,4.4651e-05,4.23e-06,0.0,0 STARLINK-3762,1 52374U 22045AV  23163.93116682  .00000423  00000-0  44651-4 0  9998,2 52374  53.2178   1.6992 0001177  94.1721 265.9405 15.08841709 64842,6917.875,95.437,540.554,538.926,0.0
52374.0,STARLINK-3762,PAYLOAD,2023-06-13 12:39:21,15.08836318,0.000117,53.2174,359.021,87.304,272.8086,4.0524e-05,3.57e-06,0.0,0 STARLINK-3762,1 52374U 22045AV  23164.52733131  .00000357  00000-0  40524-4 0  9999,2 52374  53.2174 359.0210 0001170  87.3040 272.8086 15.08836318 64934,6917.892,95.438,540.566,538.947,0.0
52374.0,STARLINK-3762,PAYLOAD,2023-06-13 19:00:53,15.08837315,0.0001151,53.2168,357.8328,87.987,272.1254,8.9481e-05,1.136e-05,0.0,0 STARLINK-3762,1 52374U 22045AV  23164.79228988  .00001136  00000-0  89481-4 0  9998,2 52374  53.2168 357.8328 0001151  87.9870 272.1254 15.08837315 64971,6917.889,95.438,540.55,538.957,0.0
52374.0,STARLINK-3762,PAYLOAD,2023-06-13 22:11:39,15.08843548,0.0001145,53.217,357.2373,82.4069,277.7053,9.7651e-05,1.267e-05,0.0,0 STARLINK-3762,1 52374U 22045AV  23164.92476583  .00001267  00000-0  97651-4 0  9992,2 52374  53.2170 357.2373 0001145  82.4069 277.7053 15.08843548 64996,6917.87,95.437,540.527,538.942,0.0
52374.0,STARLINK-3762,PAYLOAD,2023-06-14 12:30:08,15.08830177,0.0001252,53.2171,354.5608,86.6658,273.4477,0.00019459,2.81e-05,0.0,0 STARLINK-3762,1 52374U 22045AV  23165.52093247  .00002810  00000-0  19459-3 0  9995,2 52374  53.2171 354.5608 0001252  86.6658 273.4477 15.08830177 65085,6917.91,95.438,540.642,538.909,0.0
52374.0,STARLINK-3762,PAYLOAD,2023-06-14 18:51:40,15.08842239,0.00011,53.217,353.3717,83.9962,276.1156,0.00011563,1.553e-05,0.0,0 STARLINK-3762,1 52374U 22045AV  23165.78588613  .00001553  00000-0  11563-3 0  9990,2 52374  53.2170 353.3717 0001100  83.9962 276.1156 15.08842239 65123,6917.874,95.437,540.5,538.978,0.0
52374.0,STARLINK-3762,PAYLOAD,2023-06-14 22:02:27,15.08813007,0.0001342,53.2171,352.7771,90.9496,269.165,0.00052498,8.071e-05,0.0,0 STARLINK-3762,1 52374U 22045AV  23165.91837340  .00008071  00000-0  52498-3 0  9993,2 52374  53.2171 352.7771 0001342  90.9496 269.1650 15.08813007 65149,6917.963,95.439,540.756,538.9,0.0
52374.0,STARLINK-3762,PAYLOAD,2023-06-15 05:59:22,15.08845458,0.0001229,53.2171,351.2903,82.9087,277.2045,5.2818e-05,5.53e-06,0.0,0 STARLINK-3762,1 52374U 22045AV  23166.24956516  .00000553  00000-0  52818-4 0  9991,2 52374  53.2171 351.2903 0001229  82.9087 277.2045 15.08845458 65199,6917.864,95.437,540.579,538.879,0.0
52374.0,STARLINK-3762,PAYLOAD,2023-06-15 12:20:55,15.08841519,0.000128,53.2167,350.1019,74.8654,285.2479,6.4863e-05,7.45e-06,0.0,0 STARLINK-3762,1 52374U 22045AV  23166.51452776  .00000745  00000-0  64863-4 0  9996,2 52374  53.2167 350.1019 0001280  74.8654 285.2479 15.08841519 65236,6917.876,95.437,540.626,538.855,0.0
52374.0,STARLINK-3762,PAYLOAD,2023-06-15 18:42:27,15.08847324,0.0001207,53.2171,348.9102,90.684,269.4291,7.256e-05,8.67e-06,0.0,0 STARLINK-3762,1 52374U 22045AV  23166.77948285  .00000867  00000-0  72560-4 0  9997,2 52374  53.2171 348.9102 0001207  90.6840 269.4291 15.08847324 65271,6917.858,95.437,540.558,538.888,0.0
52374.0,STARLINK-3762,PAYLOAD,2023-06-16 12:11:41,15.08843583,0.0001189,53.2169,345.6395,92.8457,267.2671,5.7665e-05,6.3e-06,0.0,0 STARLINK-3762,1 52374U 22045AV  23167.50812372  .00000630  00000-0  57665-4 0  9993,2 52374  53.2169 345.6395 0001189  92.8457 267.2671 15.08843583 65386,6917.869,95.437,540.557,538.912,0.0
52374.0,STARLINK-3762,PAYLOAD,2023-06-16 20:08:37,15.08850117,0.0001085,53.2173,344.1523,93.9811,266.1305,8.5694e-05,1.077e-05,0.0,0 STARLINK-3762,1 52374U 22045AV  23167.83931730  .00001077  00000-0  85694-4 0  9998,2 52374  53.2173 344.1523 0001085  93.9811 266.1305 15.08850117 65438,6917.849,95.437,540.465,538.964,0.0
52374.0,STARLINK-3762,PAYLOAD,2023-06-16 21:44:00,15.08851231,0.0001234,53.2171,343.8548,94.9019,265.2114,9.1374e-05,1.167e-05,0.0,0 STARLINK-3762,1 52374U 22045AV  23167.90555611  .00001167  00000-0  91374-4 0  9998,2 52374  53.2171 343.8548 0001234  94.9019 265.2114 15.08851231 65443,6917.846,95.437,540.565,538.857,0.0
52374.0,STARLINK-3762,PAYLOAD,2023-06-17 10:27:07,15.08824495,9.89e-05,53.217,341.4762,75.4933,284.6169,-8.7486e-05,-1.679e-05,0.0,0 STARLINK-3762,1 52374U 22045AV  23168.43550064 -.00001679  00000-0 -87486-4 0  9993,2 52374  53.2170 341.4762 0000989  75.4933 284.6169 15.08824495 65525,6917.928,95.439,540.477,539.109,0.0
52374.0,STARLINK-3762,PAYLOAD,2023-06-17 12:02:30,15.08824567,7.62e-05,53.2171,341.1794,79.9582,280.1496,-8.5545e-05,-1.648e-05,0.0,0 STARLINK-3762,1 52374U 22045AV  23168.50174020 -.00001648  00000-0 -85545-4 0  9995,2 52374  53.2171 341.1794 0000762  79.9582 280.1496 15.08824567 65531,6917.928,95.439,540.32,539.265,0.0
52374.0,STARLINK-3762,PAYLOAD,2023-06-17 15:13:16,15.08826961,0.0001152,53.2172,340.5845,99.3663,260.746,-7.4583e-05,-1.474e-05,0.0,0 STARLINK-3762,1 52374U 22045AV  23168.63421936 -.00001474  00000-0 -74583-4 0  9997,2 52374  53.2172 340.5845 0001152  99.3663 260.7460 15.08826961 65559,6917.92,95.438,540.582,538.988,0.0
52374.0,STARLINK-3762,PAYLOAD,2023-06-17 18:24:02,15.08830771,0.0001105,53.2174,339.9898,97.8508,262.2609,-7.7068e-05,-1.514e-05,0.0,0 STARLINK-3762,1 52374U 22045AV  23168.76669775 -.00001514  00000-0 -77068-4 0  9992,2 52374  53.2174 339.9898 0001105  97.8508 262.2609 15.08830771 65578,6917.909,95.438,540.538,539.009,0.0
52374.0,STARLINK-3762,PAYLOAD,2023-06-18 03:56:21,15.08835207,0.0001016,53.217,338.2048,93.5686,266.5423,-8.1017e-07,-3.01e-06,0.0,0 STARLINK-3762,1 52374U 22045AV  23169.16413488 -.00000301  00000-0 -81017-6 0  9999,2 52374  53.2170 338.2048 0001016  93.5686 266.5423 15.08835207 65631,6917.895,95.438,540.463,539.057,0.0
52374.0,STARLINK-3762,PAYLOAD,2023-06-18 10:17:53,15.08834907,0.000112,53.2177,337.0159,98.3477,261.7642,4.2532e-05,3.89e-06,0.0,0 STARLINK-3762,1 52374U 22045AV  23169.42909539  .00000389  00000-0  42532-4 0  9996,2 52374  53.2177 337.0159 0001120  98.3477 261.7642 15.08834907 65675,6917.896,95.438,540.536,538.986,0.0
52374.0,STARLINK-3762,PAYLOAD,2023-06-18 18:14:48,15.08847558,0.0001049,53.2174,335.5303,83.1983,276.9129,7.2295e-05,8.63e-06,0.0,0 STARLINK-3762,1 52374U 22045AV  23169.76028737  .00000863  00000-0  72295-4 0  9991,2 52374  53.2174 335.5303 0001049  83.1983 276.9129 15.08847558 65720,6917.857,95.437,540.448,538.997,0.0
52374.0,STARLINK-3762,PAYLOAD,2023-06-19 10:08:40,15.08835937,9.86e-05,53.2165,332.5569,88.5875,271.523,0.00022955,3.367e-05,0.0,0 STARLINK-3762,1 52374U 22045AV  23170.42269566  .00003367  00000-0  22955-3 0  9992,2 52374  53.2165 332.5569 0000986  88.5875 271.5230 15.08835937 65822,6917.893,95.438,540.44,539.076,0.0
52374.0,STARLINK-3762,PAYLOAD,2023-06-20 11:34:50,15.08843088,0.0001027,53.216,327.7973,90.8744,269.2366,8.1985e-05,1.017e-05,0.0,0 STARLINK-3762,1 52374U 22045AV  23171.48253226  .00001017  00000-0  81985-4 0  9994,2 52374  53.2160 327.7973 0001027  90.8744 269.2366 15.08843088 65987,6917.871,95.437,540.446,539.025,0.0
52374.0,STARLINK-3762,PAYLOAD,2023-06-20 17:56:23,15.08845399,8.61e-05,53.2167,326.6085,84.905,275.2041,5.9997e-05,6.67e-06,0.0,0 STARLINK-3762,1 52374U 22045AV  23171.74749077  .00000667  00000-0  59997-4 0  9995,2 52374  53.2167 326.6085 0000861  84.9050 275.2041 15.08845399 66025,6917.864,95.437,540.325,539.133,0.0
